#dP2020  6 20  0  0  0.00000000      96 __u+U ITR00 FIT  IAC
## 2110 518400.00000000   900.00000000 59020 0.0000000000000
+  117   C01C02C03C04C05C06C07C08C09C10C11C12C13C14C16C19C20
+        C21C22C23C24C25C26C27C28C29C30C32C33C34C35C36C37C45
+        C46E01E02E03E04E05E07E08E09E11E12E13E14E15E18E19E21
+        E24E25E26E27E30E31E33E36G01G02G03G04G05G06G07G08G09
+        G10G11G12G13G14G15G16G17G18G19G20G21G22G24G25G26G27
+        G28G29G30G31G32J01J02J03J07R01R02R03R04R05R07R08R09
+        R11R12R13R14R15R16R17R18R19R20R21R22R23R24R26  0  0
++        13 13 16 15 13  8  8  9  8 11  8  8  8  8  8  8  7
++         8  8  7  8  8  8  8  8  0  8  8  8  8  8  8  8  9
++         9  4  4  5  4  4  5  4  4  4  4  4  4  5  4  5  4
++         4  4  5  5  4  4  5  5  3  3  3  3  3  3  3  3  3
++         3  4  3  3  4  3  3  3  3  4  3  4  3  3  3  4  3
++         3  3  3  3  3  8  8  8  0  6  5  5  5  5  6  6  6
++         6  5  6  5  5  6  5  6  6  6  5  8  6  6  8  0  0
%c M  cc GPS ccc cccc cccc cccc cccc ccccc ccccc ccccc ccccc
%c cc cc ccc ccc cccc cccc cccc cccc ccccc ccccc ccccc ccccc
%f  0.0000000  0.000000000  0.00000000000  0.000000000000000
%f  0.0000000  0.000000000  0.00000000000  0.000000000000000
%i    0    0    0    0      0      0      0      0         0
%i    0    0    0    0      0      0      0      0         0
/* INFORMATION & ANALYSIS CENTER (IAC)            RAPID DATA
/* S/V CLOCKS ARE ALIGNED TO GNSS TIME                      
/* G:C1WC2W R:C1PC2P E:C1XC5X C:C2IC6I J:C1CC2S             
/* PCV:IGS14_2101 OL/AL:FES2004  NONE     YN ORB:CoN CLK:CoN
*  2020 06 20 12 30  0.00000000
PC01 -34346.429940  24409.204872   -615.881804   -400.875734
PC02   4424.471403  41915.721876   1412.944833    269.821472
PC03 -14812.333185  39498.055173    658.290736    854.973436
PC04 -39611.447019  14451.725580   -312.080656   -155.187544
PC05  21904.869739  36027.681579   1102.199155   -490.041305
PC06 -10959.376524  36788.836115  18341.512804    758.925310
PC07 -14417.540613  22217.598165 -32659.553129     31.263393
PC08 -24946.509556  29496.077691  16599.478401   -323.263628
PC09   -992.621390  42295.793297   2666.210720    622.651751
PC10   2896.899627  27752.041733 -31313.095716   -257.422108
PC11 -14595.813280  -4849.473529 -23234.749745   -440.303627
PC12  -5951.871235 -22702.883461 -15090.301908    406.622116
PC13 -11250.878064  30065.971861  27290.684772    500.584400
PC14 -23830.983404 -11162.406589   9411.197852    557.869411
PC16  -8291.239169  38270.201554  15966.322848   -613.736508
PC19  22027.286583   2995.976588 -16825.175902    450.034897
PC20  22069.312107  16993.253467  -1338.953748   -849.612012
PC21  -8954.877693 -21410.473761 -15493.736958   -552.122754
PC22   9160.878474 -13082.284986 -22875.445403   -782.868304
PC23 -19324.697669  16046.211610 -12159.540124   -851.320153
PC24 -18321.853281  -8127.512784  19408.908023   -786.810209
PC25 -26671.975457   6653.903831   4760.256509   -658.349929
PC26   -437.171089 -16773.262136  22299.389460    725.123933
PC27   -325.043094  27034.609533   6932.903146    350.707550
PC28 -11870.389903  22921.769972 -10596.044767   -210.955285
PC29      0.000000      0.000000      0.000000 999999.999999
PC30  11824.886224  15191.040983  20204.372776    334.761838
PC32   9061.849733  21350.111097  15526.254981   -877.747101
PC33 -22111.356907  -2923.872632  16797.394554   -810.184205
PC34 -12063.914149 -14707.292119 -20419.893490   -828.586200
PC35  11197.538578 -23175.640023  10735.199706   -787.891967
PC36  26812.863705  -5894.782969  -4949.439222   -849.935921
PC37   -674.214432  16926.543920 -22153.235123   -854.179629
PC45  19289.774513 -16060.103373  12215.565113    160.357045
PC46  18777.448807   7596.876869 -19193.678998    775.536420
PE01  13597.883694  15473.666166 -21254.107335   -881.641752
PE02 -13695.644601 -15450.865281  21207.648477    141.737019
PE03 -12605.982067 -26791.241592    246.260800   -311.893198
PE04  19792.421193  13853.248256 -17088.187149   -549.685181
PE05   2078.445275 -24166.725874 -16960.034737   -370.026533
PE07 -15447.129834   7443.018317  24140.861535   -398.177793
PE08 -19818.423967 -13560.584496  17326.048558   6161.100735
PE09  15191.639400  -7614.097246 -24224.960248   6022.439488
PE11  21253.233974 -16460.389319  12358.989000   3580.345412
PE12  17031.920800   3144.333523  23997.608501   5745.905196
PE13 -21194.530655  16383.027765 -12600.085289    401.734263
PE14  12241.074714  16333.589780  12619.492439  -1056.187957
PE15 -17104.488742  -2791.898756 -23994.595045    862.847609
PE18 -19672.404244 -12646.119312 -22371.769613  -1157.534232
PE19  11287.166642  27304.372347   1806.461957      7.785928
PE21  -8526.726771  15245.322726 -23899.011946   -605.633232
PE24  26267.827989  -5825.429221  12342.630859   5392.736284
PE25   8664.673234 -15214.212421  23871.115735   -512.431784
PE26 -12665.390085  25929.239144   6590.765455   3051.497463
PE27 -26075.654240   6115.683549 -12601.250200    194.477079
PE30 -28054.128624  -6942.266228   6380.937580   3811.161759
PE31  28225.047125   6550.419720  -6026.740939   -472.939008
PE33   2957.021298  20345.813511  21299.699479   -465.874946
PE36  12838.808695 -25937.655169  -6195.056275    544.521441
PG01  11826.953949 -20328.212820 -12229.640762     12.980900
PG02 -21482.162838  13173.973327  -7668.607019   -475.052156
PG03   3158.238799 -14904.820741 -21822.683859   -214.864569
PG04    992.735808 -25707.440608  -6521.381748   -104.836328
PG05 -21673.489718   3939.075295  14840.351289    -15.029263
PG06 -20082.827321   1705.392728 -17268.022824   -291.559055
PG07  -5730.408601 -14966.419946  21424.380268   -308.812847
PG08   7858.528091 -19180.330634  16468.849607    -38.202022
PG09  -7970.290538 -24924.746549   4450.586108   -239.663117
PG10  23557.426059  11784.898267   4384.452273   -376.782181
PG11  11775.540920 -23893.926051   1771.444245   -243.487862
PG12  -4031.370226  14512.971851 -22120.821258    103.865112
PG13 -13127.276311  11654.644129  19784.936247     19.907786
PG14  15177.069079   4624.703168 -20976.701454     -4.525778
PG15  -6107.729959  20401.469376  15318.857039   -222.982932
PG16  20437.738220  -2839.550447  16754.623400   -172.774260
PG17 -13407.883510 -14252.192601 -17560.763068    283.655601
PG18   4817.719780  15063.835342  21324.165669    225.325715
PG19 -14832.087300  -5892.803201 -21538.504453   -142.695871
PG20  16491.303718  14785.720812  14740.055097    527.472528
PG21  14867.184399   6991.406708  21598.328230     13.923946
PG22  11601.585811 -12410.440052 -20177.322213   -776.958750
PG24 -12097.540797  21376.816431  -9817.910450    -14.579347
PG25   7408.314917  16988.211403 -19360.474292     14.916827
PG26  25708.004332   3934.447936   5909.919411    228.836189
PG27  13100.243811  -8446.823484  21307.169863   -325.415134
PG28 -22735.428251 -13291.295212   3325.951372    706.970180
PG29   3270.320278  26326.645667    822.219584   -132.154863
PG30 -15421.302147  -7048.274361  20533.540065   -245.605490
PG31  21379.588156  -2677.866251 -15862.826971    -50.359604
PG32  15089.817283  12582.416832 -17855.444433    303.352899
PJ01 -26091.798815  21718.055422  30085.665977   -284.393484
PJ02 -34302.762513  16238.092456 -13901.166510     -0.632084
PJ03 -20272.253608  31344.435808 -15092.551479     -4.320119
PJ07      0.000000      0.000000      0.000000 999999.999999
PR01  11835.314355  -2832.110237 -22408.446689     63.350745
PR02  -4475.621921 -18282.113427 -17142.904064    432.493876
PR03 -15691.819100 -20029.218031  -1376.542395     17.105437
PR04 -17793.637757 -10442.363871  15031.242449     53.415514
PR05  -9860.440489   5015.614659  22998.420349     52.652275
PR07  15889.754537  19962.237424    914.409882    -37.738111
PR08  17828.034142  10482.242120 -14881.906007    -52.972567
PR09  -1982.651960  11592.545549 -22626.994512    139.073687
PR11  24565.559107   -974.439055  -6684.038213    -27.757131
PR12  21833.818190  -8579.363144  10064.864874    140.603868
PR13   6365.326485 -11659.083299  21759.829361    -40.240415
PR14 -12874.521877  -7832.320777  20599.198787     52.478912
PR15 -24355.718558    434.198018   7597.188223    106.897766
PR16 -21212.077556   9282.259774 -10588.908974     -4.278108
PR17  -2661.242527 -17121.771189 -18732.930483    334.640560
PR18 -10819.445249   -818.287042 -23080.851384     39.498135
PR19 -13599.634149  15083.562129 -15438.006551    -98.781502
PR20  -8203.861680  23941.711391   3373.559000   -414.740319
PR21   3139.470856  16318.257634  19337.138720   -132.672790
PR22  11515.867819  -1592.218115  22686.995769  42597.359305
PR23  12357.149964 -20197.983181   9471.901197    313.402057
PR24   7602.978985 -24013.886524  -4053.567221      3.347115
PR26  -9810.150960  23476.594342  -1593.069349   -392.460445
EOF
